CCSDS_OMM_VERS = 2.0
CREATION_DATE  = 
ORIGINATOR     = 

OBJECT_NAME    = DELTA 2 R/B(1)
OBJECT_ID      = 1990-008B
CENTER_NAME    = EARTH
REF_FRAME      = TEME
TIME_SYSTEM    = UTC
MEAN_ELEMENT_THEORY = SGP/SGP4

EPOCH          = 2025-12-13T03:19:29.319456
MEAN_MOTION    = 15.45255970
ECCENTRICITY   = .0111385
INCLINATION    = 35.6077
RA_OF_ASC_NODE = 17.9583
ARG_OF_PERICENTER = 182.2896
MEAN_ANOMALY   = 177.7336

EPHEMERIS_TYPE = 0
CLASSIFICATION_TYPE = U
NORAD_CAT_ID   = 20453
ELEMENT_SET_NO = 999
REV_AT_EPOCH   = 91269
BSTAR          = .88234721E-3
MEAN_MOTION_DOT = .55305E-3
MEAN_MOTION_DDOT = 0

CCSDS_OMM_VERS = 2.0
CREATION_DATE  = 
ORIGINATOR     = 

OBJECT_NAME    = COSMOS 2058
OBJECT_ID      = 1990-010A
CENTER_NAME    = EARTH
REF_FRAME      = TEME
TIME_SYSTEM    = UTC
MEAN_ELEMENT_THEORY = SGP/SGP4

EPOCH          = 2025-12-12T21:22:13.868256
MEAN_MOTION    = 15.10471839
ECCENTRICITY   = .00083251
INCLINATION    = 82.4664
RA_OF_ASC_NODE = 132.8818
ARG_OF_PERICENTER = 272.3587
MEAN_ANOMALY   = 87.6689

EPHEMERIS_TYPE = 0
CLASSIFICATION_TYPE = U
NORAD_CAT_ID   = 20465
ELEMENT_SET_NO = 999
REV_AT_EPOCH   = 92913
BSTAR          = .44952567E-3
MEAN_MOTION_DOT = .7431E-4
MEAN_MOTION_DDOT = 0

CCSDS_OMM_VERS = 2.0
CREATION_DATE  = 
ORIGINATOR     = 

OBJECT_NAME    = SL-14 R/B
OBJECT_ID      = 1990-010B
CENTER_NAME    = EARTH
REF_FRAME      = TEME
TIME_SYSTEM    = UTC
MEAN_ELEMENT_THEORY = SGP/SGP4

EPOCH          = 2025-12-13T06:50:28.809024
MEAN_MOTION    = 14.83472262
ECCENTRICITY   = .00187567
INCLINATION    = 82.5020
RA_OF_ASC_NODE = 348.5349
ARG_OF_PERICENTER = 221.2655
MEAN_ANOMALY   = 138.7143

EPHEMERIS_TYPE = 0
CLASSIFICATION_TYPE = U
NORAD_CAT_ID   = 20466
ELEMENT_SET_NO = 999
REV_AT_EPOCH   = 91567
BSTAR          = .87754069E-4
MEAN_MOTION_DOT = .746E-5
MEAN_MOTION_DDOT = 0

CCSDS_OMM_VERS = 2.0
CREATION_DATE  = 
ORIGINATOR     = 

OBJECT_NAME    = SL-14 R/B
OBJECT_ID      = 1990-018B
CENTER_NAME    = EARTH
REF_FRAME      = TEME
TIME_SYSTEM    = UTC
MEAN_ELEMENT_THEORY = SGP/SGP4

EPOCH          = 2025-12-13T06:53:44.625120
MEAN_MOTION    = 14.82047774
ECCENTRICITY   = .0016956
INCLINATION    = 82.5210
RA_OF_ASC_NODE = 303.8525
ARG_OF_PERICENTER = 21.6119
MEAN_ANOMALY   = 338.5807

EPHEMERIS_TYPE = 0
CLASSIFICATION_TYPE = U
NORAD_CAT_ID   = 20511
ELEMENT_SET_NO = 999
REV_AT_EPOCH   = 90978
BSTAR          = .10330119E-3
MEAN_MOTION_DOT = .845E-5
MEAN_MOTION_DDOT = 0

CCSDS_OMM_VERS = 2.0
CREATION_DATE  = 
ORIGINATOR     = 

OBJECT_NAME    = HST
OBJECT_ID      = 1990-037B
CENTER_NAME    = EARTH
REF_FRAME      = TEME
TIME_SYSTEM    = UTC
MEAN_ELEMENT_THEORY = SGP/SGP4

EPOCH          = 2025-12-13T04:24:54.495648
MEAN_MOTION    = 15.28062026
ECCENTRICITY   = .00017908
INCLINATION    = 28.4685
RA_OF_ASC_NODE = 269.4662
ARG_OF_PERICENTER = 244.6720
MEAN_ANOMALY   = 115.3690

EPHEMERIS_TYPE = 0
CLASSIFICATION_TYPE = U
NORAD_CAT_ID   = 20580
ELEMENT_SET_NO = 999
REV_AT_EPOCH   = 76006
BSTAR          = .38147643E-3
MEAN_MOTION_DOT = .10978E-3
MEAN_MOTION_DDOT = 0

CCSDS_OMM_VERS = 2.0
CREATION_DATE  = 
ORIGINATOR     = 

OBJECT_NAME    = SL-16 R/B
OBJECT_ID      = 1990-046B
CENTER_NAME    = EARTH
REF_FRAME      = TEME
TIME_SYSTEM    = UTC
MEAN_ELEMENT_THEORY = SGP/SGP4

EPOCH          = 2025-12-13T07:28:29.067456
MEAN_MOTION    = 14.15001269
ECCENTRICITY   = .00118339
INCLINATION    = 70.9990
RA_OF_ASC_NODE = 119.3206
ARG_OF_PERICENTER = 72.0948
MEAN_ANOMALY   = 288.1464

EPHEMERIS_TYPE = 0
CLASSIFICATION_TYPE = U
NORAD_CAT_ID   = 20625
ELEMENT_SET_NO = 999
REV_AT_EPOCH   = 83617
BSTAR          = -.19975098E-4
MEAN_MOTION_DOT = -.86E-6
MEAN_MOTION_DDOT = 0

CCSDS_OMM_VERS = 2.0
CREATION_DATE  = 
ORIGINATOR     = 

OBJECT_NAME    = COSMOS 2084
OBJECT_ID      = 1990-055A
CENTER_NAME    = EARTH
REF_FRAME      = TEME
TIME_SYSTEM    = UTC
MEAN_ELEMENT_THEORY = SGP/SGP4

EPOCH          = 2025-12-13T05:34:44.691744
MEAN_MOTION    = 15.05025601
ECCENTRICITY   = .00316076
INCLINATION    = 62.7906
RA_OF_ASC_NODE = 270.3140
ARG_OF_PERICENTER = 174.6941
MEAN_ANOMALY   = 185.4500

EPHEMERIS_TYPE = 0
CLASSIFICATION_TYPE = U
NORAD_CAT_ID   = 20663
ELEMENT_SET_NO = 999
REV_AT_EPOCH   = 92330
BSTAR          = .36218889E-3
MEAN_MOTION_DOT = .5023E-4
MEAN_MOTION_DDOT = 0

CCSDS_OMM_VERS = 2.0
CREATION_DATE  = 
ORIGINATOR     = 

OBJECT_NAME    = SL-6 R/B(2)
OBJECT_ID      = 1990-055D
CENTER_NAME    = EARTH
REF_FRAME      = TEME
TIME_SYSTEM    = UTC
MEAN_ELEMENT_THEORY = SGP/SGP4

EPOCH          = 2025-12-13T07:11:21.635808
MEAN_MOTION    = 15.03080184
ECCENTRICITY   = .00127853
INCLINATION    = 62.7827
RA_OF_ASC_NODE = 187.5137
ARG_OF_PERICENTER = 309.3278
MEAN_ANOMALY   = 50.6687

EPHEMERIS_TYPE = 0
CLASSIFICATION_TYPE = U
NORAD_CAT_ID   = 20666
ELEMENT_SET_NO = 999
REV_AT_EPOCH   = 92520
BSTAR          = .27126699E-3
MEAN_MOTION_DOT = .3486E-4
MEAN_MOTION_DDOT = 0

CCSDS_OMM_VERS = 2.0
CREATION_DATE  = 
ORIGINATOR     = 

OBJECT_NAME    = SL-8 R/B
OBJECT_ID      = 1990-078B
CENTER_NAME    = EARTH
REF_FRAME      = TEME
TIME_SYSTEM    = UTC
MEAN_ELEMENT_THEORY = SGP/SGP4

EPOCH          = 2025-12-13T04:51:33.584256
MEAN_MOTION    = 14.85965697
ECCENTRICITY   = .03719316
INCLINATION    = 82.9051
RA_OF_ASC_NODE = 328.8967
ARG_OF_PERICENTER = 304.3555
MEAN_ANOMALY   = 52.2991

EPHEMERIS_TYPE = 0
CLASSIFICATION_TYPE = U
NORAD_CAT_ID   = 20775
ELEMENT_SET_NO = 999
REV_AT_EPOCH   = 79644
BSTAR          = .91039484E-3
MEAN_MOTION_DOT = .29411E-3
MEAN_MOTION_DDOT = 0

CCSDS_OMM_VERS = 2.0
CREATION_DATE  = 
ORIGINATOR     = 

OBJECT_NAME    = SL-8 R/B
OBJECT_ID      = 1991-006B
CENTER_NAME    = EARTH
REF_FRAME      = TEME
TIME_SYSTEM    = UTC
MEAN_ELEMENT_THEORY = SGP/SGP4

EPOCH          = 2025-12-13T04:44:57.961248
MEAN_MOTION    = 13.77490013
ECCENTRICITY   = .00212143
INCLINATION    = 82.9428
RA_OF_ASC_NODE = 234.3721
ARG_OF_PERICENTER = 278.5319
MEAN_ANOMALY   = 198.4010

EPHEMERIS_TYPE = 0
CLASSIFICATION_TYPE = U
NORAD_CAT_ID   = 21088
ELEMENT_SET_NO = 999
REV_AT_EPOCH   = 75216
BSTAR          = .59798322E-4
MEAN_MOTION_DOT = .75E-6
MEAN_MOTION_DDOT = 0

CCSDS_OMM_VERS = 2.0
CREATION_DATE  = 
ORIGINATOR     = 

OBJECT_NAME    = OKEAN-3
OBJECT_ID      = 1991-039A
CENTER_NAME    = EARTH
REF_FRAME      = TEME
TIME_SYSTEM    = UTC
MEAN_ELEMENT_THEORY = SGP/SGP4

EPOCH          = 2025-12-13T06:44:30.795936
MEAN_MOTION    = 15.04125156
ECCENTRICITY   = .00129968
INCLINATION    = 82.5172
RA_OF_ASC_NODE = 60.5232
ARG_OF_PERICENTER = 264.6961
MEAN_ANOMALY   = 95.2783

EPHEMERIS_TYPE = 0
CLASSIFICATION_TYPE = U
NORAD_CAT_ID   = 21397
ELEMENT_SET_NO = 999
REV_AT_EPOCH   = 85204
BSTAR          = .42401767E-3
MEAN_MOTION_DOT = .5913E-4
MEAN_MOTION_DDOT = 0

CCSDS_OMM_VERS = 2.0
CREATION_DATE  = 
ORIGINATOR     = 

OBJECT_NAME    = COSMOS 2151
OBJECT_ID      = 1991-042A
CENTER_NAME    = EARTH
REF_FRAME      = TEME
TIME_SYSTEM    = UTC
MEAN_ELEMENT_THEORY = SGP/SGP4

EPOCH          = 2025-12-13T06:58:13.996128
MEAN_MOTION    = 14.99689796
ECCENTRICITY   = .00125191
INCLINATION    = 82.4958
RA_OF_ASC_NODE = 166.9725
ARG_OF_PERICENTER = 358.2093
MEAN_ANOMALY   = 1.9084

EPHEMERIS_TYPE = 0
CLASSIFICATION_TYPE = U
NORAD_CAT_ID   = 21422
ELEMENT_SET_NO = 999
REV_AT_EPOCH   = 85024
BSTAR          = .21957086E-3
MEAN_MOTION_DOT = .2738E-4
MEAN_MOTION_DDOT = 0

