DELTA 2 R/B(1)          
1 20453U 90008B   25347.13853379  .00055305  00000+0  88235-3 0  9997
2 20453  35.6077  17.9583 0111385 182.2896 177.7336 15.45255970912696
COSMOS 2058             
1 20465U 90010A   25346.89043829  .00007431  00000+0  44953-3 0  9992
2 20465  82.4664 132.8818 0008325 272.3587  87.6689 15.10471839929139
SL-14 R/B               
1 20466U 90010B   25347.28505566  .00000746  00000+0  87754-4 0  9997
2 20466  82.5020 348.5349 0018756 221.2655 138.7143 14.83472262915677
SL-14 R/B               
1 20511U 90018B   25347.28732205  .00000845  00000+0  10330-3 0  9993
2 20511  82.5210 303.8525 0016956  21.6119 338.5807 14.82047774909783
HST                     
1 20580U 90037B   25347.18396407  .00010978  00000+0  38148-3 0  9994
2 20580  28.4685 269.4662 0001790 244.6720 115.3690 15.28062026760063
SL-16 R/B               
1 20625U 90046B   25347.31144754 -.00000086  00000+0 -19975-4 0  9994
2 20625  70.9990 119.3206 0011833  72.0948 288.1464 14.15001269836176
COSMOS 2084             
1 20663U 90055A   25347.23246171  .00005023  00000+0  36219-3 0  9996
2 20663  62.7906 270.3140 0031607 174.6941 185.4500 15.05025601923300
SL-6 R/B(2)             
1 20666U 90055D   25347.29955597  .00003486  00000+0  27127-3 0  9993
2 20666  62.7827 187.5137 0012785 309.3278  50.6687 15.03080184925201
SL-8 R/B                
1 20775U 90078B   25347.20247204  .00029411  00000+0  91039-3 0  9998
2 20775  82.9051 328.8967 0371931 304.3555  52.2991 14.85965697796448
SL-8 R/B                
1 21088U 91006B   25347.19789307  .00000075  00000+0  59798-4 0  9993
2 21088  82.9428 234.3721 0021214 278.5319 198.4010 13.77490013752160
OKEAN-3                 
1 21397U 91039A   25347.28091199  .00005913  00000+0  42402-3 0  9996
2 21397  82.5172  60.5232 0012996 264.6961  95.2783 15.04125156852041
COSMOS 2151             
1 21422U 91042A   25347.29043977  .00002738  00000+0  21957-3 0  9995
2 21422  82.4958 166.9725 0012519 358.2093   1.9084 14.99689796850242
